H-2A R/B                
1 38341U 12025E   25322.73485071  .00004623  00000+0  42928-3 0  9990
2 38341  98.4553 276.1234 0044547 317.0061  42.7679 14.94214243731642
SHIJIAN-16 (SJ-16)      
1 39358U 13057A   25322.93111161  .00002774  00000+0  27649-3 0  9991
2 39358  74.9750  34.6991 0016668  17.0004 343.1739 14.91885419654985
SL-4 R/B                
1 39679U 14021B   25322.54663949  .00015053  00000+0  36532-3 0  9997
2 39679  51.6058 158.0947 0103618  59.1979 301.9153 15.35830020639179
ALOS-2                  
1 39766U 14029A   25322.93627568  .00002353  00000+0  32194-3 0  9991
2 39766  97.9238  58.1207 0001443 100.3099 259.8276 14.79465711620493
YAOGAN-29               
1 41038U 15069A   25322.99982118  .00000678  00000+0  90403-4 0  9998
2 41038  98.0243 346.0927 0001792  36.8508 323.2828 14.82845493539478
ASTRO-H (HITOMI)        
1 41337U 16012A   25321.82288552  .00004529  00000+0  27250-3 0  9999
2 41337  31.0014 357.9743 0009859 286.5211  73.4344 15.09138755535319
HXMT (HUIYAN)           
1 42758U 17034A   25322.94122730  .00009172  00000+0  47478-3 0  9994
2 42758  43.0150 271.6596 0034140 255.3424 104.3637 15.15917666465729
CZ-2C R/B               
1 43521U 18054D   25321.76441702  .00090159  00000+0  74442-3 0  9994
2 43521  35.1363 349.5434 0023338 257.2024 102.6099 15.68683496411123
SAOCOM 1A               
1 43641U 18076A   25322.90814293  .00000754  00000+0  10126-3 0  9998
2 43641  97.8853 147.6764 0001386  90.7470 269.3902 14.82176520384956
H-2A R/B                
1 43682U 18084L   25322.79638852  .00018826  00000+0  52769-3 0  9992
2 43682  98.8788 151.9356 0028969  47.8056 312.5636 15.36252878388728
SAOCOM 1B               
1 46265U 20059A   25322.93944253  .00000243  00000+0  37069-4 0  9999
2 46265  97.8849 146.8090 0001348  89.8992 270.2376 14.82148601282340
CSS (TIANHE)            
1 48274U 21035A   25322.94465235  .00020545  00000+0  25704-3 0  9994
2 48274  41.4655 161.0797 0007147 192.6976 167.3683 15.59286551260315
