CCSDS_OMM_VERS = 2.0
CREATION_DATE  = 
ORIGINATOR     = 

OBJECT_NAME    = H-2A R/B
OBJECT_ID      = 2012-025E
CENTER_NAME    = EARTH
REF_FRAME      = TEME
TIME_SYSTEM    = UTC
MEAN_ELEMENT_THEORY = SGP/SGP4

EPOCH          = 2025-11-18T17:38:11.101344
MEAN_MOTION    = 14.94214243
ECCENTRICITY   = .00445472
INCLINATION    = 98.4553
RA_OF_ASC_NODE = 276.1234
ARG_OF_PERICENTER = 317.0061
MEAN_ANOMALY   = 42.7679

EPHEMERIS_TYPE = 0
CLASSIFICATION_TYPE = U
NORAD_CAT_ID   = 38341
ELEMENT_SET_NO = 999
REV_AT_EPOCH   = 73164
BSTAR          = .42927913E-3
MEAN_MOTION_DOT = .4623E-4
MEAN_MOTION_DDOT = 0

CCSDS_OMM_VERS = 2.0
CREATION_DATE  = 
ORIGINATOR     = 

OBJECT_NAME    = SHIJIAN-16 (SJ-16)
OBJECT_ID      = 2013-057A
CENTER_NAME    = EARTH
REF_FRAME      = TEME
TIME_SYSTEM    = UTC
MEAN_ELEMENT_THEORY = SGP/SGP4

EPOCH          = 2025-11-18T22:20:48.043104
MEAN_MOTION    = 14.91885419
ECCENTRICITY   = .00166684
INCLINATION    = 74.9750
RA_OF_ASC_NODE = 34.6991
ARG_OF_PERICENTER = 17.0004
MEAN_ANOMALY   = 343.1739

EPHEMERIS_TYPE = 0
CLASSIFICATION_TYPE = U
NORAD_CAT_ID   = 39358
ELEMENT_SET_NO = 999
REV_AT_EPOCH   = 65498
BSTAR          = .27648756E-3
MEAN_MOTION_DOT = .2774E-4
MEAN_MOTION_DDOT = 0

CCSDS_OMM_VERS = 2.0
CREATION_DATE  = 
ORIGINATOR     = 

OBJECT_NAME    = SL-4 R/B
OBJECT_ID      = 2014-021B
CENTER_NAME    = EARTH
REF_FRAME      = TEME
TIME_SYSTEM    = UTC
MEAN_ELEMENT_THEORY = SGP/SGP4

EPOCH          = 2025-11-18T13:07:09.651936
MEAN_MOTION    = 15.35830020
ECCENTRICITY   = .01036184
INCLINATION    = 51.6058
RA_OF_ASC_NODE = 158.0947
ARG_OF_PERICENTER = 59.1979
MEAN_ANOMALY   = 301.9153

EPHEMERIS_TYPE = 0
CLASSIFICATION_TYPE = U
NORAD_CAT_ID   = 39679
ELEMENT_SET_NO = 999
REV_AT_EPOCH   = 63917
BSTAR          = .36532249E-3
MEAN_MOTION_DOT = .15053E-3
MEAN_MOTION_DDOT = 0

CCSDS_OMM_VERS = 2.0
CREATION_DATE  = 
ORIGINATOR     = 

OBJECT_NAME    = ALOS-2
OBJECT_ID      = 2014-029A
CENTER_NAME    = EARTH
REF_FRAME      = TEME
TIME_SYSTEM    = UTC
MEAN_ELEMENT_THEORY = SGP/SGP4

EPOCH          = 2025-11-18T22:28:14.218752
MEAN_MOTION    = 14.79465711
ECCENTRICITY   = .00014434
INCLINATION    = 97.9238
RA_OF_ASC_NODE = 58.1207
ARG_OF_PERICENTER = 100.3099
MEAN_ANOMALY   = 259.8276

EPHEMERIS_TYPE = 0
CLASSIFICATION_TYPE = U
NORAD_CAT_ID   = 39766
ELEMENT_SET_NO = 999
REV_AT_EPOCH   = 62049
BSTAR          = .32194358E-3
MEAN_MOTION_DOT = .2353E-4
MEAN_MOTION_DDOT = 0

CCSDS_OMM_VERS = 2.0
CREATION_DATE  = 
ORIGINATOR     = 

OBJECT_NAME    = YAOGAN-29
OBJECT_ID      = 2015-069A
CENTER_NAME    = EARTH
REF_FRAME      = TEME
TIME_SYSTEM    = UTC
MEAN_ELEMENT_THEORY = SGP/SGP4

EPOCH          = 2025-11-18T23:59:44.549952
MEAN_MOTION    = 14.82845493
ECCENTRICITY   = .00017927
INCLINATION    = 98.0243
RA_OF_ASC_NODE = 346.0927
ARG_OF_PERICENTER = 36.8508
MEAN_ANOMALY   = 323.2828

EPHEMERIS_TYPE = 0
CLASSIFICATION_TYPE = U
NORAD_CAT_ID   = 41038
ELEMENT_SET_NO = 999
REV_AT_EPOCH   = 53947
BSTAR          = .90402775E-4
MEAN_MOTION_DOT = .678E-5
MEAN_MOTION_DDOT = 0

CCSDS_OMM_VERS = 2.0
CREATION_DATE  = 
ORIGINATOR     = 

OBJECT_NAME    = ASTRO-H (HITOMI)
OBJECT_ID      = 2016-012A
CENTER_NAME    = EARTH
REF_FRAME      = TEME
TIME_SYSTEM    = UTC
MEAN_ELEMENT_THEORY = SGP/SGP4

EPOCH          = 2025-11-17T19:44:57.308928
MEAN_MOTION    = 15.09138755
ECCENTRICITY   = .00098595
INCLINATION    = 31.0014
RA_OF_ASC_NODE = 357.9743
ARG_OF_PERICENTER = 286.5211
MEAN_ANOMALY   = 73.4344

EPHEMERIS_TYPE = 0
CLASSIFICATION_TYPE = U
NORAD_CAT_ID   = 41337
ELEMENT_SET_NO = 999
REV_AT_EPOCH   = 53531
BSTAR          = .27250042E-3
MEAN_MOTION_DOT = .4529E-4
MEAN_MOTION_DDOT = 0

CCSDS_OMM_VERS = 2.0
CREATION_DATE  = 
ORIGINATOR     = 

OBJECT_NAME    = HXMT (HUIYAN)
OBJECT_ID      = 2017-034A
CENTER_NAME    = EARTH
REF_FRAME      = TEME
TIME_SYSTEM    = UTC
MEAN_ELEMENT_THEORY = SGP/SGP4

EPOCH          = 2025-11-18T22:35:22.038720
MEAN_MOTION    = 15.15917666
ECCENTRICITY   = .00341403
INCLINATION    = 43.0150
RA_OF_ASC_NODE = 271.6596
ARG_OF_PERICENTER = 255.3424
MEAN_ANOMALY   = 104.3637

EPHEMERIS_TYPE = 0
CLASSIFICATION_TYPE = U
NORAD_CAT_ID   = 42758
ELEMENT_SET_NO = 999
REV_AT_EPOCH   = 46572
BSTAR          = .47478325E-3
MEAN_MOTION_DOT = .9172E-4
MEAN_MOTION_DDOT = 0

CCSDS_OMM_VERS = 2.0
CREATION_DATE  = 
ORIGINATOR     = 

OBJECT_NAME    = CZ-2C R/B
OBJECT_ID      = 2018-054D
CENTER_NAME    = EARTH
REF_FRAME      = TEME
TIME_SYSTEM    = UTC
MEAN_ELEMENT_THEORY = SGP/SGP4

EPOCH          = 2025-11-17T18:20:45.630528
MEAN_MOTION    = 15.68683496
ECCENTRICITY   = .00233387
INCLINATION    = 35.1363
RA_OF_ASC_NODE = 349.5434
ARG_OF_PERICENTER = 257.2024
MEAN_ANOMALY   = 102.6099

EPHEMERIS_TYPE = 0
CLASSIFICATION_TYPE = U
NORAD_CAT_ID   = 43521
ELEMENT_SET_NO = 999
REV_AT_EPOCH   = 41112
BSTAR          = .74442438E-3
MEAN_MOTION_DOT = .90159E-3
MEAN_MOTION_DDOT = 0

CCSDS_OMM_VERS = 2.0
CREATION_DATE  = 
ORIGINATOR     = 

OBJECT_NAME    = SAOCOM 1A
OBJECT_ID      = 2018-076A
CENTER_NAME    = EARTH
REF_FRAME      = TEME
TIME_SYSTEM    = UTC
MEAN_ELEMENT_THEORY = SGP/SGP4

EPOCH          = 2025-11-18T21:47:43.549152
MEAN_MOTION    = 14.82176520
ECCENTRICITY   = .00013862
INCLINATION    = 97.8853
RA_OF_ASC_NODE = 147.6764
ARG_OF_PERICENTER = 90.7470
MEAN_ANOMALY   = 269.3902

EPHEMERIS_TYPE = 0
CLASSIFICATION_TYPE = U
NORAD_CAT_ID   = 43641
ELEMENT_SET_NO = 999
REV_AT_EPOCH   = 38495
BSTAR          = .10125585E-3
MEAN_MOTION_DOT = .754E-5
MEAN_MOTION_DDOT = 0

CCSDS_OMM_VERS = 2.0
CREATION_DATE  = 
ORIGINATOR     = 

OBJECT_NAME    = H-2A R/B
OBJECT_ID      = 2018-084L
CENTER_NAME    = EARTH
REF_FRAME      = TEME
TIME_SYSTEM    = UTC
MEAN_ELEMENT_THEORY = SGP/SGP4

EPOCH          = 2025-11-18T19:06:47.968128
MEAN_MOTION    = 15.36252878
ECCENTRICITY   = .0028969
INCLINATION    = 98.8788
RA_OF_ASC_NODE = 151.9356
ARG_OF_PERICENTER = 47.8056
MEAN_ANOMALY   = 312.5636

EPHEMERIS_TYPE = 0
CLASSIFICATION_TYPE = U
NORAD_CAT_ID   = 43682
ELEMENT_SET_NO = 999
REV_AT_EPOCH   = 38872
BSTAR          = .52768798E-3
MEAN_MOTION_DOT = .18826E-3
MEAN_MOTION_DDOT = 0

CCSDS_OMM_VERS = 2.0
CREATION_DATE  = 
ORIGINATOR     = 

OBJECT_NAME    = SAOCOM 1B
OBJECT_ID      = 2020-059A
CENTER_NAME    = EARTH
REF_FRAME      = TEME
TIME_SYSTEM    = UTC
MEAN_ELEMENT_THEORY = SGP/SGP4

EPOCH          = 2025-11-18T22:32:47.834592
MEAN_MOTION    = 14.82148601
ECCENTRICITY   = .00013483
INCLINATION    = 97.8849
RA_OF_ASC_NODE = 146.8090
ARG_OF_PERICENTER = 89.8992
MEAN_ANOMALY   = 270.2376

EPHEMERIS_TYPE = 0
CLASSIFICATION_TYPE = U
NORAD_CAT_ID   = 46265
ELEMENT_SET_NO = 999
REV_AT_EPOCH   = 28234
BSTAR          = .37069367E-4
MEAN_MOTION_DOT = .243E-5
MEAN_MOTION_DDOT = 0

CCSDS_OMM_VERS = 2.0
CREATION_DATE  = 
ORIGINATOR     = 

OBJECT_NAME    = CSS (TIANHE)
OBJECT_ID      = 2021-035A
CENTER_NAME    = EARTH
REF_FRAME      = TEME
TIME_SYSTEM    = UTC
MEAN_ELEMENT_THEORY = SGP/SGP4

EPOCH          = 2025-11-18T22:40:17.963040
MEAN_MOTION    = 15.59286551
ECCENTRICITY   = .00071478
INCLINATION    = 41.4655
RA_OF_ASC_NODE = 161.0797
ARG_OF_PERICENTER = 192.6976
MEAN_ANOMALY   = 167.3683

EPHEMERIS_TYPE = 0
CLASSIFICATION_TYPE = U
NORAD_CAT_ID   = 48274
ELEMENT_SET_NO = 999
REV_AT_EPOCH   = 26031
BSTAR          = .25704412E-3
MEAN_MOTION_DOT = .20545E-3
MEAN_MOTION_DDOT = 0

